{"type": "FeatureCollection", "features": [ {"type": "Feature", "properties": {"norad_id": 37834, "name": "INTELSAT 18 (IS-18)", "group": "intelsat", "lat": -0.0035913663370931857, "lon": 139.00611574790932, "alt_km": 35791.3342221544, "timestamp": "2025-12-11T15:53:39.210040+00:00", "meta": {"OBJECT_NAME": "INTELSAT 18 (IS-18)", "OBJECT_ID": "2011-056A", "EPOCH": "2025-12-11T07:20:38.761152", "MEAN_MOTION": 1.0027145, "ECCENTRICITY": 0.00019179, "INCLINATION": 0.015, "RA_OF_ASC_NODE": 294.8807, "ARG_OF_PERICENTER": 333.9156, "MEAN_ANOMALY": 101.6285, "EPHEMERIS_TYPE": 0, "CLASSIFICATION_TYPE": "U", "NORAD_CAT_ID": 37834, "ELEMENT_SET_NO": 999, "REV_AT_EPOCH": 5192, "BSTAR": 0, "MEAN_MOTION_DOT": 5.9e-07, "MEAN_MOTION_DDOT": 0}, "tle": {"line1": "1 37834U 11056A   25345.30600418  .00000059  00000+0  00000+0 0  9991", "line2": "2 37834   0.0150 294.8807 0001917 333.9156 101.6285  1.00271450 51929"}}, "geometry": {"type": "Point", "coordinates": [139.00611574790932, -0.0035913663370931857]}}, {"type": "Feature", "properties": {"norad_id": 38098, "name": "INTELSAT 22 (IS-22)", "group": "intelsat", "lat": 0.013944477113103084, "lon": 31.1665816796296, "alt_km": 35790.330040546505, "timestamp": "2025-12-11T15:53:39.210052+00:00", "meta": {"OBJECT_NAME": "INTELSAT 22 (IS-22)", "OBJECT_ID": "2012-011A", "EPOCH": "2025-12-11T03:24:38.659968", "MEAN_MOTION": 1.00270971, "ECCENTRICITY": 0.00017234, "INCLINATION": 0.0031, "RA_OF_ASC_NODE": 358.2448, "ARG_OF_PERICENTER": 269.4542, "MEAN_ANOMALY": 295.6919, "EPHEMERIS_TYPE": 0, "CLASSIFICATION_TYPE": "U", "NORAD_CAT_ID": 38098, "ELEMENT_SET_NO": 999, "REV_AT_EPOCH": 530, "BSTAR": 0, "MEAN_MOTION_DOT": -5.3e-07, "MEAN_MOTION_DDOT": 0}, "tle": {"line1": "1 38098U 12011A   25345.14211412 -.00000053  00000+0  00000+0 0  9995", "line2": "2 38098   0.0031 358.2448 0001723 269.4542 295.6919  1.00270971  5309"}}, "geometry": {"type": "Point", "coordinates": [31.1665816796296, 0.013944477113103084]}}, {"type": "Feature", "properties": {"norad_id": 38356, "name": "INTELSAT 19 (IS-19)", "group": "intelsat", "lat": 0.015137191308863833, "lon": 125.01306330605547, "alt_km": 35797.74598427455, "timestamp": "2025-12-11T15:53:39.210064+00:00", "meta": {"OBJECT_NAME": "INTELSAT 19 (IS-19)", "OBJECT_ID": "2012-030A", "EPOCH": "2025-12-11T05:17:38.741856", "MEAN_MOTION": 1.00272125, "ECCENTRICITY": 0.00034685, "INCLINATION": 0.0092, "RA_OF_ASC_NODE": 339.326, "ARG_OF_PERICENTER": 289.0605, "MEAN_ANOMALY": 57.2169, "EPHEMERIS_TYPE": 0, "CLASSIFICATION_TYPE": "U", "NORAD_CAT_ID": 38356, "ELEMENT_SET_NO": 999, "REV_AT_EPOCH": 4856, "BSTAR": 0, "MEAN_MOTION_DOT": -5e-07, "MEAN_MOTION_DDOT": 0}, "tle": {"line1": "1 38356U 12030A   25345.22058729 -.00000050  00000+0  00000+0 0  9999", "line2": "2 38356   0.0092 339.3260 0003468 289.0605  57.2169  1.00272125 48568"}}, "geometry": {"type": "Point", "coordinates": [125.01306330605547, 0.015137191308863833]}}, {"type": "Feature", "properties": {"norad_id": 38740, "name": "INTELSAT 20 (IS-20)", "group": "intelsat", "lat": 0.0014331759328728123, "lon": 27.526176852396308, "alt_km": 35796.98794206043, "timestamp": "2025-12-11T15:53:39.210075+00:00", "meta": {"OBJECT_NAME": "INTELSAT 20 (IS-20)", "OBJECT_ID": "2012-043A", "EPOCH": "2025-12-11T02:03:38.556288", "MEAN_MOTION": 1.00271347, "ECCENTRICITY": 0.00027974, "INCLINATION": 0.0063, "RA_OF_ASC_NODE": 85.143, "ARG_OF_PERICENTER": 99.0256, "MEAN_ANOMALY": 355.3044, "EPHEMERIS_TYPE": 0, "CLASSIFICATION_TYPE": "U", "NORAD_CAT_ID": 38740, "ELEMENT_SET_NO": 999, "REV_AT_EPOCH": 4886, "BSTAR": 0, "MEAN_MOTION_DOT": -1.9e-07, "MEAN_MOTION_DDOT": 0}, "tle": {"line1": "1 38740U 12043A   25345.08586292 -.00000019  00000+0  00000+0 0  9990", "line2": "2 38740   0.0063  85.1430 0002797  99.0256 355.3044  1.00271347 48865"}}, "geometry": {"type": "Point", "coordinates": [27.526176852396308, 0.0014331759328728123]}}, {"type": "Feature", "properties": {"norad_id": 38749, "name": "INTELSAT 21 (IS-21)", "group": "intelsat", "lat": -0.020317958181704298, "lon": -98.97946122447814, "alt_km": 35777.9047065492, "timestamp": "2025-12-11T15:53:39.210087+00:00", "meta": {"OBJECT_NAME": "INTELSAT 21 (IS-21)", "OBJECT_ID": "2012-045A", "EPOCH": "2025-12-11T04:40:28.057152", "MEAN_MOTION": 1.00269962, "ECCENTRICITY": 0.00020675, "INCLINATION": 0.0204, "RA_OF_ASC_NODE": 58.4062, "ARG_OF_PERICENTER": 200.7387, "MEAN_ANOMALY": 193.1251, "EPHEMERIS_TYPE": 0, "CLASSIFICATION_TYPE": "U", "NORAD_CAT_ID": 38749, "ELEMENT_SET_NO": 999, "REV_AT_EPOCH": 4864, "BSTAR": 0, "MEAN_MOTION_DOT": -2.79e-06, "MEAN_MOTION_DDOT": 0}, "tle": {"line1": "1 38749U 12045A   25345.19476918 -.00000279  00000+0  00000+0 0  9994", "line2": "2 38749   0.0204  58.4062 0002067 200.7387 193.1251  1.00269962 48645"}}, "geometry": {"type": "Point", "coordinates": [-98.97946122447814, -0.020317958181704298]}}, {"type": "Feature", "properties": {"norad_id": 38867, "name": "INTELSAT 23 (IS-23)", "group": "intelsat", "lat": -0.013100000540152383, "lon": -94.0662738044281, "alt_km": 35786.42928539578, "timestamp": "2025-12-11T15:53:39.210099+00:00", "meta": {"OBJECT_NAME": "INTELSAT 23 (IS-23)", "OBJECT_ID": "2012-057A", "EPOCH": "2025-12-09T20:10:10.491744", "MEAN_MOTION": 1.00260311, "ECCENTRICITY": 0.00020064, "INCLINATION": 0.0432, "RA_OF_ASC_NODE": 94.7791, "ARG_OF_PERICENTER": 102.2636, "MEAN_ANOMALY": 131.2856, "EPHEMERIS_TYPE": 0, "CLASSIFICATION_TYPE": "U", "NORAD_CAT_ID": 38867, "ELEMENT_SET_NO": 999, "REV_AT_EPOCH": 4805, "BSTAR": 0, "MEAN_MOTION_DOT": -2.82e-06, "MEAN_MOTION_DDOT": 0}, "tle": {"line1": "1 38867U 12057A   25343.84039921 -.00000282  00000+0  00000+0 0  9991", "line2": "2 38867   0.0432  94.7791 0002006 102.2636 131.2856  1.00260311 48055"}}, "geometry": {"type": "Point", "coordinates": [-94.0662738044281, -0.013100000540152383]}}, {"type": "Feature", "properties": {"norad_id": 39360, "name": "FM-6", "group": "intelsat", "lat": -0.002936941194951123, "lon": -157.1200115061714, "alt_km": 35776.27650853746, "timestamp": "2025-12-11T15:53:39.210111+00:00", "meta": {"OBJECT_NAME": "FM-6", "OBJECT_ID": "2013-058A", "EPOCH": "2025-12-10T23:15:42.718752", "MEAN_MOTION": 1.00269361, "ECCENTRICITY": 0.00028563, "INCLINATION": 0.0087, "RA_OF_ASC_NODE": 66.7059, "ARG_OF_PERICENTER": 106.8032, "MEAN_ANOMALY": 139.1966, "EPHEMERIS_TYPE": 0, "CLASSIFICATION_TYPE": "U", "NORAD_CAT_ID": 39360, "ELEMENT_SET_NO": 999, "REV_AT_EPOCH": 4418, "BSTAR": 0, "MEAN_MOTION_DOT": -1.1e-07, "MEAN_MOTION_DDOT": 0}, "tle": {"line1": "1 39360U 13058A   25344.96924443 -.00000011  00000+0  00000+0 0  9998", "line2": "2 39360   0.0087  66.7059 0002856 106.8032 139.1966  1.00269361 44182"}}, "geometry": {"type": "Point", "coordinates": [-157.1200115061714, -0.002936941194951123]}}, {"type": "Feature", "properties": {"norad_id": 40271, "name": "INTELSAT 30 (IS-30)", "group": "intelsat", "lat": -0.016889819718861877, "lon": -136.03658173651777, "alt_km": 35791.171469759174, "timestamp": "2025-12-11T15:53:39.210122+00:00", "meta": {"OBJECT_NAME": "INTELSAT 30 (IS-30)", "OBJECT_ID": "2014-062A", "EPOCH": "2025-12-10T19:56:16.820736", "MEAN_MOTION": 1.00269622, "ECCENTRICITY": 0.0001301, "INCLINATION": 0.0174, "RA_OF_ASC_NODE": 29.1064, "ARG_OF_PERICENTER": 50.969, "MEAN_ANOMALY": 203.7271, "EPHEMERIS_TYPE": 0, "CLASSIFICATION_TYPE": "U", "NORAD_CAT_ID": 40271, "ELEMENT_SET_NO": 999, "REV_AT_EPOCH": 489, "BSTAR": 0, "MEAN_MOTION_DOT": -1.46e-06, "MEAN_MOTION_DDOT": 0}, "tle": {"line1": "1 40271U 14062A   25344.83075024 -.00000146  00000+0  00000+0 0  9994", "line2": "2 40271   0.0174  29.1064 0001301  50.9690 203.7271  1.00269622  4895"}}, "geometry": {"type": "Point", "coordinates": [-136.03658173651777, -0.016889819718861877]}}, {"type": "Feature", "properties": {"norad_id": 40333, "name": "DIRECTV 14", "group": "intelsat", "lat": -0.03246619865108577, "lon": -140.1858470247535, "alt_km": 35784.601437724996, "timestamp": "2025-12-11T15:53:39.210134+00:00", "meta": {"OBJECT_NAME": "DIRECTV 14", "OBJECT_ID": "2014-078B", "EPOCH": "2025-12-10T23:20:34.751616", "MEAN_MOTION": 1.00270629, "ECCENTRICITY": 5.243e-05, "INCLINATION": 0.0172, "RA_OF_ASC_NODE": 324.7094, "ARG_OF_PERICENTER": 220.9679, "MEAN_ANOMALY": 145.1924, "EPHEMERIS_TYPE": 0, "CLASSIFICATION_TYPE": "U", "NORAD_CAT_ID": 40333, "ELEMENT_SET_NO": 999, "REV_AT_EPOCH": 4015, "BSTAR": 0, "MEAN_MOTION_DOT": -1.2e-06, "MEAN_MOTION_DDOT": 0}, "tle": {"line1": "1 40333U 14078B   25344.97262444 -.00000120  00000+0  00000+0 0  9991", "line2": "2 40333   0.0172 324.7094 0000524 220.9679 145.1924  1.00270629 40153"}}, "geometry": {"type": "Point", "coordinates": [-140.1858470247535, -0.03246619865108577]}}, {"type": "Feature", "properties": {"norad_id": 40663, "name": "DIRECTV 15", "group": "intelsat", "lat": 0.012559073892898063, "lon": -143.83590519672546, "alt_km": 35785.09928508048, "timestamp": "2025-12-11T15:53:39.210146+00:00", "meta": {"OBJECT_NAME": "DIRECTV 15", "OBJECT_ID": "2015-026A", "EPOCH": "2025-12-10T23:19:34.847904", "MEAN_MOTION": 1.00272611, "ECCENTRICITY": 2.214e-05, "INCLINATION": 0.0411, "RA_OF_ASC_NODE": 85.413, "ARG_OF_PERICENTER": 166.5843, "MEAN_ANOMALY": 74.9718, "EPHEMERIS_TYPE": 0, "CLASSIFICATION_TYPE": "U", "NORAD_CAT_ID": 40663, "ELEMENT_SET_NO": 999, "REV_AT_EPOCH": 3857, "BSTAR": 0, "MEAN_MOTION_DOT": -9.7e-07, "MEAN_MOTION_DDOT": 0}, "tle": {"line1": "1 40663U 15026A   25344.97193111 -.00000097  00000+0  00000+0 0  9998", "line2": "2 40663   0.0411  85.4130 0000221 166.5843  74.9718  1.00272611 38575"}}, "geometry": {"type": "Point", "coordinates": [-143.83590519672546, 0.012559073892898063]}}]}